{
    "links": {
        "self": "http://www.neowsapp.com/rest/v1/neo/3457841?api_key=iIulBulltgU6a56xZRHN4H3l9WmuAYTsLGpBGhQ2"
    },
    "id": "3457841",
    "neo_reference_id": "3457841",
    "name": "(2009 HB21)",
    "designation": "2009 HB21",
    "nasa_jpl_url": "http://ssd.jpl.nasa.gov/sbdb.cgi?sstr=3457841",
    "absolute_magnitude_h": 22.9,
    "estimated_diameter": {
        "kilometers": {
            "estimated_diameter_min": 0.0699125232,
            "estimated_diameter_max": 0.1563291544
        },
        "meters": {
            "estimated_diameter_min": 69.9125232246,
            "estimated_diameter_max": 156.3291544087
        },
        "miles": {
            "estimated_diameter_min": 0.0434416145,
            "estimated_diameter_max": 0.097138403
        },
        "feet": {
            "estimated_diameter_min": 229.3718026961,
            "estimated_diameter_max": 512.8909429502
        }
    },
    "is_potentially_hazardous_asteroid": false,
    "close_approach_data": [
        {
            "close_approach_date": "2009-04-16",
            "close_approach_date_full": "2009-Apr-16 02:44",
            "epoch_date_close_approach": 1239849840000,
            "relative_velocity": {
                "kilometers_per_second": "22.5672837861",
                "kilometers_per_hour": "81242.221629888",
                "miles_per_hour": "50480.7571010824"
            },
            "miss_distance": {
                "astronomical": "0.0859286134",
                "lunar": "33.4262306126",
                "kilometers": "12854737.536693458",
                "miles": "7987563.5170594004"
            },
            "orbiting_body": "Earth"
        }
    ],
    "orbital_data": {
        "orbit_id": "9",
        "orbit_determination_date": "2017-04-06 09:00:45",
        "first_observation_date": "2009-04-20",
        "last_observation_date": "2009-04-26",
        "data_arc_in_days": 6,
        "observations_used": 35,
        "orbit_uncertainty": "9",
        "minimum_orbit_intersection": ".0825636",
        "jupiter_tisserand_invariant": "3.801",
        "epoch_osculation": "2454942.5",
        "eccentricity": ".4218059064579133",
        "semi_major_axis": "1.73777080344828",
        "inclination": "39.66857616103935",
        "ascending_node_longitude": "206.8786636437704",
        "orbital_period": "836.7335275393991",
        "perihelion_distance": "1.004768814483682",
        "perihelion_argument": "317.2628991252092",
        "aphelion_distance": "2.470772792412879",
        "perihelion_time": "2454901.577538044841",
        "mean_anomaly": "17.60666427121692",
        "mean_motion": ".430244502163861",
        "equinox": "J2000",
        "orbit_class": {
            "orbit_class_type": "APO",
            "orbit_class_description": "Near-Earth asteroid orbits which cross the Earth’s orbit similar to that of 1862 Apollo",
            "orbit_class_range": "a (semi-major axis) > 1.0 AU; q (perihelion) < 1.017 AU"
        }
    },
    "is_sentry_object": false
}